{"type":"FeatureCollection","properties":{"source":"Natural Earth 10m coastline (public domain)","bbox":[11.5,54.9,13.7,56.4]},"features":[{"type":"Feature","properties":{},"geometry":{"type":"LineString","coordinates":[[13.780284,55.427436],[13.647309,55.42121],[13.629568,55.41828],[13.618175,55.410956],[13.608653,55.401801],[13.595958,55.393256],[13.580821,55.388821],[13.537852,55.393256],[13.503429,55.388373],[13.410899,55.352281],[13.381358,55.346015],[13.312511,55.342678],[13.280528,55.345445],[13.115489,55.380276],[13.061534,55.381252],[13.041759,55.385443],[13.030772,55.38642],[13.024913,55.388251],[13.008637,55.396918],[13.000011,55.400092],[12.979177,55.403266],[12.958344,55.400092],[12.947276,55.396226],[12.932628,55.388007],[12.920909,55.38642],[12.910411,55.387519],[12.897146,55.392157],[12.886729,55.393256],[12.867198,55.388861],[12.847423,55.382025],[12.832774,55.382554],[12.828787,55.400092],[12.859386,55.434882],[12.866222,55.435004],[12.871837,55.434394],[12.87794,55.431383],[12.886729,55.424302],[12.904633,55.417955],[12.929698,55.418769],[12.952891,55.424994],[12.965831,55.434882],[12.959972,55.447903],[12.963227,55.45425],[12.972911,55.454169],[12.985688,55.447903],[12.975841,55.475043],[12.928477,55.520006],[12.917491,55.547187],[12.929373,55.578925],[12.958344,55.598131],[13.027354,55.626654],[13.038341,55.635199],[13.04949,55.647121],[13.057953,55.660712],[13.061371,55.674465],[13.054861,55.694037],[13.040538,55.70539],[13.026378,55.712388],[13.011485,55.72842],[12.992931,55.725775],[12.974376,55.726467],[12.965831,55.746161],[12.941173,55.745347],[12.922618,55.749457],[12.911306,55.763861],[12.923839,55.765286],[12.931895,55.769477],[12.936534,55.777411],[12.93865,55.790473],[12.926036,55.834052],[12.891287,55.853583],[12.850759,55.865668],[12.8213,55.886705],[12.810802,55.902248],[12.80836,55.910142],[12.807628,55.924628],[12.804942,55.929267],[12.798513,55.934801],[12.790538,55.939399],[12.783702,55.941352],[12.770763,55.948432],[12.764659,55.964789],[12.76002,55.983222],[12.752289,55.996568],[12.734874,56.006171],[12.719493,56.012152],[12.708751,56.021308],[12.7046,56.040676],[12.698009,56.0515],[12.609548,56.116523],[12.602224,56.123196],[12.564626,56.171698],[12.553722,56.181545],[12.544607,56.213202],[12.540782,56.22248],[12.516449,56.252183],[12.504568,56.275336],[12.464854,56.291693],[12.451427,56.304429],[12.646251,56.25727],[12.653656,56.253974],[12.666189,56.239447],[12.673839,56.236151],[12.681651,56.234036],[12.696625,56.224595],[12.704845,56.22248],[12.71339,56.223578],[12.727387,56.228217],[12.735606,56.229315],[12.777599,56.226508],[12.796886,56.228095],[12.814464,56.236151],[12.827403,56.249945],[12.833507,56.265692],[12.829438,56.278551],[12.783458,56.293402],[12.76295,56.315375],[12.731781,56.359687],[12.643809,56.396064],[12.621593,56.419338]]}},{"type":"Feature","properties":{},"geometry":{"type":"LineString","coordinates":[[11.725759,54.873358],[11.649425,54.91352],[11.646332,54.902289],[11.644786,54.889635]]}},{"type":"Feature","properties":{},"geometry":{"type":"LineString","coordinates":[[12.417166,55.030219],[12.335297,55.033271],[12.301768,55.04206],[12.28004,55.064276],[12.261974,55.064276],[12.250987,55.060736],[12.247569,55.05386],[12.252696,55.04385],[12.261567,55.036811],[12.2942,55.023383],[12.2942,55.016547],[12.285655,55.013129],[12.281261,55.007148],[12.281505,54.999091],[12.286876,54.989203],[12.27475,54.984442],[12.242198,54.97663],[12.232188,54.975531],[12.217296,54.978664],[12.193126,54.988349],[12.177013,54.989203],[12.184337,54.975531],[12.177013,54.968085],[12.164399,54.972642],[12.151378,54.968899],[12.129161,54.954413],[12.134532,54.951606],[12.144054,54.943793],[12.149099,54.940823],[12.138194,54.937242],[12.128917,54.931627],[12.124685,54.923733],[12.129161,54.91352],[12.115001,54.91352],[12.115001,54.907294],[12.178722,54.888983]]}},{"type":"Feature","properties":{},"geometry":{"type":"LineString","coordinates":[[12.226817,54.892646],[12.28004,54.934556],[12.313975,54.950873],[12.348399,54.960028],[12.384613,54.96308],[12.502778,54.948188],[12.526215,54.948676],[12.542654,54.951158],[12.551768,54.95718],[12.553722,54.968085],[12.537608,55.002387],[12.504731,55.019761],[12.417166,55.030219]]}},{"type":"Feature","properties":{},"geometry":{"type":"LineString","coordinates":[[12.615733,55.688137],[12.614106,55.69245],[12.612559,55.695136],[12.608409,55.701117],[12.595063,55.691352],[12.578136,55.666449],[12.567393,55.653998],[12.556814,55.646959],[12.543956,55.640367],[12.531016,55.631903],[12.520193,55.619208],[12.520518,55.596747],[12.534841,55.569322],[12.556326,55.550482],[12.577973,55.554023],[12.588878,55.561347],[12.605724,55.569281],[12.624197,55.575629],[12.639415,55.578274],[12.674571,55.601264],[12.673839,55.605536],[12.615733,55.688137]]}},{"type":"Feature","properties":{},"geometry":{"type":"LineString","coordinates":[[12.023936,54.898017],[11.991466,54.916327],[11.982188,54.920315],[11.980235,54.924262],[11.965994,54.942613],[11.957856,54.948188],[11.932384,54.941474],[11.923676,54.940823],[11.928559,54.931383],[11.931163,54.92772],[11.918468,54.921942],[11.903331,54.923],[11.890147,54.929633],[11.882823,54.940823],[11.88502,54.955146],[11.894379,54.964993],[11.901541,54.976386],[11.897146,54.995429],[11.904633,54.996568],[11.908376,54.998603],[11.911388,55.000922],[11.91684,55.002875],[11.913829,55.003852],[11.911143,55.003811],[11.909516,55.00495],[11.910167,55.009711],[11.943858,55.00609],[11.998057,54.976508],[12.03297,54.968085],[12.055919,54.970771],[12.089529,54.985663],[12.104991,54.989203],[12.128429,54.989976],[12.148936,54.994127],[12.162283,55.004381],[12.163341,55.023383],[12.125743,55.071112],[12.1185,55.073554],[12.128429,55.078843],[12.149099,55.085395],[12.157725,55.089179],[12.16505,55.091295],[12.171397,55.095445],[12.177013,55.105292],[12.16863,55.128485],[12.130544,55.135891],[12.046641,55.140082],[12.017914,55.153022],[12.012462,55.157131],[12.014659,55.167467],[12.02003,55.170966],[12.027843,55.172675],[12.036794,55.177558],[12.056407,55.185696],[12.076671,55.181952],[12.088145,55.168362],[12.08074,55.146877],[12.090099,55.142239],[12.098969,55.141425],[12.107432,55.145087],[12.115001,55.153713],[12.10906,55.170722],[12.121104,55.191067],[12.141368,55.207994],[12.167003,55.217353],[12.182791,55.2272],[12.392426,55.255316],[12.444591,55.276557],[12.450206,55.27969],[12.465017,55.290269],[12.450857,55.317206],[12.4463,55.331692],[12.444591,55.348863],[12.434744,55.363674],[12.41212,55.379136],[12.368826,55.400092],[12.352061,55.404446],[12.290538,55.406928],[12.273448,55.410224],[12.224864,55.434882],[12.19809,55.487494],[12.24822,55.546129],[12.248383,55.546251],[12.312022,55.58397],[12.331309,55.595404],[12.331309,55.595404],[12.403575,55.619208],[12.423676,55.618842],[12.436778,55.614407],[12.448578,55.608873],[12.465017,55.605536],[12.487153,55.609849],[12.496755,55.621772],[12.503266,55.634019],[12.541026,55.648871],[12.581228,55.693061],[12.602224,55.708564],[12.592784,55.719143],[12.589203,55.72427],[12.587901,55.729071],[12.589041,55.735745],[12.594737,55.752997],[12.595876,55.774237],[12.597992,55.787584],[12.602224,55.797349],[12.589692,55.809475],[12.57602,55.829169],[12.565115,55.851142],[12.560557,55.86994],[12.554454,55.88288],[12.540294,55.898261],[12.512706,55.920844],[12.512706,55.92829],[12.525564,55.939887],[12.552745,55.979682],[12.567393,55.996568],[12.608409,56.028022],[12.621918,56.043769],[12.570079,56.068264],[12.540375,56.075385],[12.505382,56.093166],[12.486095,56.099026],[12.414887,56.099026],[12.328461,56.126899],[12.245128,56.12873],[12.165375,56.103705],[12.012462,56.030707],[11.917328,55.997626],[11.865571,55.972724],[11.848643,55.948188],[11.865489,55.939358],[11.894298,55.942288],[11.970714,55.959866],[11.992442,55.960598],[12.01059,55.955268],[12.026134,55.941352],[12.049815,55.888007],[12.053477,55.873725],[12.053477,55.838324],[12.095063,55.729071],[12.092052,55.706732],[12.069102,55.674954],[12.060313,55.653998],[12.026622,55.662055],[12.011404,55.669013],[12.005138,55.678168],[12.009288,55.680487],[12.040375,55.674465],[12.031912,55.687201],[12.017589,55.695705],[12.00115,55.698676],[11.985199,55.694892],[11.982188,55.6789],[11.959158,55.665107],[11.930431,55.65762],[11.910167,55.660142],[11.923025,55.67414],[11.958181,55.693427],[11.965343,55.704901],[11.972667,55.721422],[11.990001,55.722805],[12.026134,55.715399],[12.051931,55.73664],[12.049001,55.775336],[12.031261,55.816596],[12.012462,55.845771],[12.004893,55.853461],[12.000173,55.856513],[11.996349,55.86107],[11.992035,55.873725],[11.993826,55.881537],[11.997895,55.892768],[11.99822,55.902818],[11.988617,55.907172],[11.969981,55.912584],[11.934744,55.933661],[11.91684,55.934516],[11.909516,55.915473],[11.933116,55.886135],[11.953624,55.853502],[11.937348,55.825263],[11.919444,55.819403],[11.884044,55.813666],[11.869151,55.804755],[11.852712,55.782294],[11.844981,55.76789],[11.841807,55.756415],[11.844005,55.752672],[11.853282,55.739976],[11.855479,55.732815],[11.854421,55.732164],[11.852306,55.730902],[11.810557,55.679104],[11.797618,55.669623],[11.779796,55.660142],[11.787934,55.676947],[11.793793,55.68301],[11.794444,55.687934],[11.787283,55.701117],[11.763031,55.721381],[11.746349,55.731024],[11.73878,55.725979],[11.729259,55.723578],[11.684337,55.721625],[11.669932,55.722846],[11.657237,55.730862],[11.664561,55.737128],[11.682302,55.741278],[11.762706,55.749498],[11.763682,55.756822],[11.75587,55.772935],[11.745453,55.789374],[11.73878,55.797349],[11.720388,55.798651],[11.70281,55.793402],[11.687022,55.786444],[11.673595,55.783026],[11.624278,55.780015],[11.607758,55.783026],[11.607758,55.790473],[11.626231,55.790595],[11.63795,55.796088],[11.656261,55.810981],[11.671235,55.814276],[11.702403,55.809475],[11.717621,55.810981],[11.731619,55.830715],[11.712657,55.8581],[11.663097,55.907172],[11.672862,55.91592],[11.685802,55.919867],[11.717621,55.920844],[11.713552,55.910834],[11.711436,55.907172],[11.727875,55.902289],[11.743988,55.903754],[11.750499,55.910386],[11.73878,55.920844],[11.747325,55.932807],[11.775401,55.95185],[11.779796,55.961859],[11.768321,55.970526],[11.747813,55.968248],[11.711436,55.955634],[11.64088,55.943427],[11.599376,55.942084],[11.581065,55.95185],[11.426931,55.965522]]}},{"type":"Feature","properties":{},"geometry":{"type":"LineString","coordinates":[[11.477387,55.941352],[11.510509,55.908271],[11.505219,55.86872],[11.47755,55.841539]]}},{"type":"Feature","properties":{},"geometry":{"type":"LineString","coordinates":[[11.492361,55.204169],[11.506033,55.208319],[11.524181,55.202094],[11.599376,55.191311],[11.636241,55.181627],[11.649425,55.180976],[11.663829,55.1883],[11.678233,55.199368],[11.695079,55.208075],[11.717621,55.208319],[11.733084,55.200141],[11.734711,55.188666],[11.726248,55.176947],[11.711436,55.167914],[11.728526,55.154771],[11.785411,55.157213],[11.806977,55.146877],[11.809581,55.138861],[11.803966,55.134833],[11.717621,55.125718],[11.743419,55.100531],[11.805349,55.073879],[11.827485,55.050686],[11.775238,55.05744],[11.669607,55.085639],[11.615896,55.092231],[11.630382,55.081122],[11.646658,55.072333],[11.665538,55.066392],[11.72877,55.064276],[11.73699,55.062201],[11.750255,55.052802],[11.755626,55.050686],[11.774669,55.04857],[11.841807,55.030219],[11.853526,55.020087],[11.872325,54.989569],[11.882823,54.981757],[11.882823,54.975531],[11.862478,54.96369],[11.848318,54.959133],[11.841807,54.964667],[11.837576,54.966132],[11.814789,54.952094],[11.803966,54.948188],[11.792979,54.951321],[11.773611,54.965033],[11.759288,54.968085],[11.749766,54.965725],[11.711436,54.948188],[11.711436,54.940823],[11.731944,54.935289],[11.742035,54.925442],[11.745372,54.911322],[11.745616,54.893012]]}}]}